{
  "norad_id": 55049,
  "name": "ICEYE-X21",
  "history": [
    {
      "epoch": "2026-03-28T22:26:41.515008",
      "apogee_km": 331.2127655164768,
      "perigee_km": 328.4812744235451,
      "latitude_deg": 48.84770950748473,
      "longitude_deg": 134.67946111992933,
      "semi_major_axis_km": 6707.98401997001,
      "eccentricity": 0.0002036,
      "inclination_deg": 97.3338,
      "raan_deg": 168.0097,
      "arg_perigee_deg": 344.0911,
      "mean_anomaly_deg": 16.0292,
      "mean_motion_rev_day": 15.80209735
    }
  ]
}