{"fetched_at":"2026-03-30T06:02:59Z","count":15439,"tles":[{"name":"ICEYE-X21","line1":"1 55049U 23001AS  26087.93520272  .00016994  00000+0  91779-4 0  9997","line2":"2 55049  97.3338 168.0097 0002036 344.0911  16.0292 15.80209735180854","category":"Other"}]}